[{"OBJECT_NAME":"QIANFAN-39","OBJECT_ID":"2024-232D","EPOCH":"2026-03-09T21:25:16.059072","MEAN_MOTION":14.25440879,"ECCENTRICITY":0.00171102,"INCLINATION":89.0064,"RA_OF_ASC_NODE":27.3413,"ARG_OF_PERICENTER":145.5992,"MEAN_ANOMALY":214.6313,"EPHEMERIS_TYPE":0,"CLASSIFICATION_TYPE":"U","NORAD_CAT_ID":62240,"ELEMENT_SET_NO":999,"REV_AT_EPOCH":11380,"BSTAR":0.00022622412,"MEAN_MOTION_DOT":5.49e-6,"MEAN_MOTION_DDOT":0},{"OBJECT_NAME":"COSMOS 1275 DEB","OBJECT_ID":"1981-053N","EPOCH":"2026-03-09T20:22:23.849760","MEAN_MOTION":14.29584425,"ECCENTRICITY":0.00335189,"INCLINATION":82.9689,"RA_OF_ASC_NODE":222.5806,"ARG_OF_PERICENTER":24.6374,"MEAN_ANOMALY":100.6255,"EPHEMERIS_TYPE":0,"CLASSIFICATION_TYPE":"U","NORAD_CAT_ID":12658,"ELEMENT_SET_NO":999,"REV_AT_EPOCH":27604,"BSTAR":0.0010965837,"MEAN_MOTION_DOT":2.839e-5,"MEAN_MOTION_DDOT":0}]
